[
  {
    "OBJECT_NAME": "STARLINK-5779",
    "OBJECT_ID": "2023-042AU",
    "EPOCH": "2026-06-11T12:00:12.116000",
    "MEAN_MOTION": 15.27576526,
    "ECCENTRICITY": 0.0001382,
    "INCLINATION": 43.0031,
    "RA_OF_ASC_NODE": 235.3416,
    "ARG_OF_PERICENTER": 271.5494,
    "MEAN_ANOMALY": 88.52,
    "EPHEMERIS_TYPE": 0,
    "CLASSIFICATION_TYPE": "U",
    "NORAD_CAT_ID": 56028,
    "ELEMENT_SET_NO": 999,
    "REV_AT_EPOCH": 17738,
    "BSTAR": -0.000008534899999999999,
    "MEAN_MOTION_DOT": -0.00000497,
    "MEAN_MOTION_DDOT": 0
  }
]
