STARLINK-5779           
1 56028U 23042AU  26162.50014023 -.00000497  00000+0 -85349-5 0  9999
2 56028  43.0031 235.3416 0001382 271.5494  88.5200 15.27576526177389
